OBJECT_NAME,OBJECT_ID,EPOCH,MEAN_MOTION,ECCENTRICITY,INCLINATION,RA_OF_ASC_NODE,ARG_OF_PERICENTER,MEAN_ANOMALY,EPHEMERIS_TYPE,CLASSIFICATION_TYPE,NORAD_CAT_ID,ELEMENT_SET_NO,REV_AT_EPOCH,BSTAR,MEAN_MOTION_DOT,MEAN_MOTION_DDOT
KUIPER-00597,2026-118R,2026-07-05T09:38:22.800192,15.37538282,.00061537,51.8645,325.2393,243.3480,116.6877,0,U,69282,999,678,.1129633E-2,.42119E-3,0
KUIPER-00599,2026-118S,2026-07-04T19:27:28.411200,15.37806093,.00067523,51.8709,328.0420,246.9832,113.0443,0,U,69283,999,669,.26497505E-2,.100989E-2,0
KUIPER-00600,2026-118T,2026-07-05T09:50:07.219392,15.37281925,.00078842,51.8651,325.2882,246.0363,113.9799,0,U,69284,999,678,.15965669E-2,.59353E-3,0
KUIPER-00601,2026-118U,2026-07-05T14:00:03.000384,15.31646833,.00034254,51.8747,324.2960,227.2491,97.5494,0,U,69285,999,502,-.67932071E-3,-.21376E-3,0
KUIPER-00602,2026-118V,2026-07-04T18:59:01.253472,15.38702955,.0002498,51.8733,327.9148,235.6708,124.4043,0,U,69286,999,669,.164289E-2,.63975E-3,0
KUIPER-00603,2026-118W,2026-07-04T19:19:31.050336,15.38174386,.00049564,51.8694,328.0011,248.7853,111.2604,0,U,69287,999,669,.62767884E-3,.23656E-3,0
KUIPER-00605,2026-118X,2026-07-05T14:00:03.000384,15.22843368,.0005019,51.8772,324.8719,250.7202,161.4298,0,U,69288,999,210,-.51398148E-1,-.1127788E-1,0
KUIPER-00606,2026-118Y,2026-07-05T09:16:24.443328,15.38166227,.00038663,51.8703,325.1514,223.3809,136.6874,0,U,69289,999,678,.18374811E-2,.70421E-3,0
KUIPER-00607,2026-118Z,2026-07-04T19:24:13.542912,15.37796591,.00052837,51.8694,328.0246,232.9040,127.1465,0,U,69290,999,669,.8507258E-3,.31843E-3,0
KUIPER-00608,2026-118AA,2026-07-05T09:05:46.031136,15.34092036,.0007254,51.8609,325.8119,256.4410,103.5767,0,U,69291,999,677,.60310882E-3,.19888E-3,0
KUIPER-00610,2026-118AB,2026-07-04T15:49:08.565024,15.38649239,.000173,51.8755,328.5321,255.5114,104.5681,0,U,69292,999,667,.13784186E-2,.53441E-3,0
KUIPER-00613,2026-118AC,2026-07-05T14:00:03.000384,15.27647891,.00101204,51.8677,325.1359,250.2832,14.0111,0,U,69293,999,388,-.44401865E-1,-.1114364E-1,0
KUIPER-00618,2026-118AD,2026-07-04T15:50:48.514272,15.37357695,.00009188,51.8753,328.5380,233.7362,126.3540,0,U,69294,999,667,.11510291E-2,.42654E-3,0
KUIPER-00620,2026-118AE,2026-07-04T18:55:19.071552,15.38616570,.00014218,51.8736,327.8992,186.0880,174.0090,0,U,69295,999,669,.8086773E-3,.31062E-3,0
STARLINK-37501,2026-119A,2026-07-05T01:40:23.959200,15.33480633,.00014784,97.2839,211.8551,100.3117,259.8292,0,U,69296,999,679,.93834233E-3,.30374E-3,0
STARLINK-37496,2026-119B,2026-07-05T14:00:03.000384,15.33377012,.00013014,97.2854,212.5075,117.5491,181.2125,0,U,69297,999,600,.11014702E-2,.35576E-3,0
STARLINK-37519,2026-119C,2026-07-05T12:30:20.892096,15.33449225,.0000324,97.2835,212.3124,30.9545,329.1717,0,U,69298,999,686,.75241701E-3,.24297E-3,0
STARLINK-37455,2026-119D,2026-07-05T14:00:03.000384,15.33377882,.0001608,97.2853,212.3673,94.1569,234.6018,0,U,69299,999,598,.10262708E-2,.33133E-3,0
STARLINK-37456,2026-119E,2026-07-05T12:26:26.236608,15.33438794,.00012492,97.2839,212.3176,81.3854,278.7530,0,U,69300,999,686,.45050718E-3,.14494E-3,0
STARLINK-37630,2026-119F,2026-07-05T14:00:03.000384,15.36930672,.00016606,97.2851,212.3738,91.7614,258.9731,0,U,69301,999,587,.8591677E-3,.31035E-3,0
STARLINK-37804,2026-119G,2026-07-02T12:40:14.772000,15.49216484,.0000544,97.2854,209.3403,120.9976,239.1328,0,U,69302,999,640,.10429E-2,.57098E-3,0
STARLINK-37730,2026-119H,2026-07-05T01:16:54.220512,15.33474527,.00005182,97.2841,211.8771,113.3869,246.7428,0,U,69303,999,679,.89689325E-3,.29018E-3,0
STARLINK-37731,2026-119J,2026-07-05T14:00:03.000384,15.36922010,.00010837,97.2849,212.3970,73.9034,331.5595,0,U,69304,999,601,.13359129E-2,.48396E-3,0
STARLINK-37734,2026-119K,2026-07-05T01:09:04.741920,15.33479480,.00021894,97.2842,211.8830,84.3181,275.8312,0,U,69305,999,679,.11779266E-2,.38188E-3,0
STARLINK-37701,2026-119L,2026-07-05T01:05:09.909312,15.33490519,.00005216,97.2842,211.8884,51.5064,308.6226,0,U,69306,999,679,.16700429E-2,.54306E-3,0
STARLINK-37732,2026-119M,2026-07-05T01:01:14.871936,15.33479031,.00016346,97.2841,211.8928,83.4615,276.6814,0,U,69307,999,679,.13441071E-2,.43616E-3,0
STARLINK-37689,2026-119N,2026-07-05T14:00:03.000384,15.38948071,.00016526,97.2853,212.4169,85.8770,358.5064,0,U,69308,999,605,-.36776181E-1,-.1279033E-1,0
STARLINK-37619,2026-119P,2026-07-05T00:53:24.814464,15.33461635,.00012885,97.2841,211.8998,88.1154,272.0237,0,U,69309,999,679,.1045906E-2,.3386E-3,0
STARLINK-37794,2026-119Q,2026-07-05T00:49:29.945568,15.33478807,.00012862,97.2841,211.9025,109.3792,250.7590,0,U,69310,999,679,.1248579E-2,.40493E-3,0
STARLINK-37795,2026-119R,2026-07-05T14:00:03.000384,15.41053299,.00018122,97.2859,212.4297,78.2768,38.0201,0,U,69311,999,588,-.6813549E-1,-.2488681E-1,0
