KUIPER-00597            
1 69282U 26118R   26186.40165278  .00042119  00000+0  11296-2 0  9998
2 69282  51.8645 325.2393 0006153 243.3480 116.6877 15.37538282  6785
KUIPER-00599            
1 69283U 26118S   26185.81074550  .00100989  00000+0  26498-2 0  9995
2 69283  51.8709 328.0420 0006752 246.9832 113.0443 15.37806093  6692
KUIPER-00600            
1 69284U 26118T   26186.40980578  .00059353  00000+0  15966-2 0  9994
2 69284  51.8651 325.2882 0007884 246.0363 113.9799 15.37281925  6781
KUIPER-00601            
1 69285U 26118U   26186.58336806 -.00021376  00000+0 -67932-3 0  9990
2 69285  51.8747 324.2960 0003425 227.2491  97.5494 15.31646833  5026
KUIPER-00602            
1 69286U 26118V   26185.79098673  .00063975  00000+0  16429-2 0  9993
2 69286  51.8733 327.9148 0002498 235.6708 124.4043 15.38702955  6692
KUIPER-00603            
1 69287U 26118W   26185.80522049  .00023656  00000+0  62768-3 0  9995
2 69287  51.8694 328.0011 0004956 248.7853 111.2604 15.38174386  6695
KUIPER-00605            
1 69288U 26118X   26186.58336806 -.01127788  00000+0 -51398-1 0  9995
2 69288  51.8772 324.8719 0005019 250.7202 161.4298 15.22843368  2108
KUIPER-00606            
1 69289U 26118Y   26186.38639402  .00070421  00000+0  18375-2 0  9999
2 69289  51.8703 325.1514 0003866 223.3809 136.6874 15.38166227  6788
KUIPER-00607            
1 69290U 26118Z   26185.80849008  .00031843  00000+0  85073-3 0  9997
2 69290  51.8694 328.0246 0005283 232.9040 127.1465 15.37796591  6694
KUIPER-00608            
1 69291U 26118AA  26186.37900499  .00019888  00000+0  60311-3 0  9996
2 69291  51.8609 325.8119 0007254 256.4410 103.5767 15.34092036  6779
KUIPER-00610            
1 69292U 26118AB  26185.65912691  .00053441  00000+0  13784-2 0  9998
2 69292  51.8755 328.5321 0001730 255.5114 104.5681 15.38649239  6673
KUIPER-00613            
1 69293U 26118AC  26186.58336806 -.01114364  00000+0 -44402-1 0  9995
2 69293  51.8677 325.1359 0010120 250.2832  14.0111 15.27647891  3886
KUIPER-00618            
1 69294U 26118AD  26185.66028373  .00042654  00000+0  11510-2 0  9995
2 69294  51.8753 328.5380 0000918 233.7362 126.3540 15.37357695  6675
KUIPER-00620            
1 69295U 26118AE  26185.78841518  .00031062  00000+0  80868-3 0  9997
2 69295  51.8736 327.8992 0001421 186.0880 174.0090 15.38616570  6696
STARLINK-37501          
1 69296U 26119A   26186.06972175  .00030374  00000+0  93834-3 0  9997
2 69296  97.2839 211.8551 0001478 100.3117 259.8292 15.33480633  6793
STARLINK-37496          
1 69297U 26119B   26186.58336806  .00035576  00000+0  11015-2 0  9999
2 69297  97.2854 212.5075 0001301 117.5491 181.2125 15.33377012  6003
STARLINK-37519          
1 69298U 26119C   26186.52107514  .00024297  00000+0  75242-3 0  9997
2 69298  97.2835 212.3124 0000324  30.9545 329.1717 15.33449225  6868
STARLINK-37455          
1 69299U 26119D   26186.58336806  .00033133  00000+0  10263-2 0  9992
2 69299  97.2853 212.3673 0001608  94.1569 234.6018 15.33377882  5987
STARLINK-37456          
1 69300U 26119E   26186.51835922  .00014494  00000+0  45051-3 0  9994
2 69300  97.2839 212.3176 0001249  81.3854 278.7530 15.33438794  6864
STARLINK-37630          
1 69301U 26119F   26186.58336806  .00031035  00000+0  85917-3 0  9994
2 69301  97.2851 212.3738 0001660  91.7614 258.9731 15.36930672  5877
STARLINK-37804          
1 69302U 26119G   26183.52794875  .00057098  00000+0  10429-2 0  9992
2 69302  97.2854 209.3403 0000544 120.9976 239.1328 15.49216484  6407
STARLINK-37730          
1 69303U 26119H   26186.05340533  .00029018  00000+0  89689-3 0  9998
2 69303  97.2841 211.8771 0000518 113.3869 246.7428 15.33474527  6792
STARLINK-37731          
1 69304U 26119J   26186.58336806  .00048396  00000+0  13359-2 0  9995
2 69304  97.2849 212.3970 0001083  73.9034 331.5595 15.36922010  6012
STARLINK-37734          
1 69305U 26119K   26186.04797155  .00038188  00000+0  11779-2 0  9997
2 69305  97.2842 211.8830 0002189  84.3181 275.8312 15.33479480  6799
STARLINK-37701          
1 69306U 26119L   26186.04525358  .00054306  00000+0  16700-2 0  9991
2 69306  97.2842 211.8884 0000521  51.5064 308.6226 15.33490519  6798
STARLINK-37732          
1 69307U 26119M   26186.04253324  .00043616  00000+0  13441-2 0  9994
2 69307  97.2841 211.8928 0001634  83.4615 276.6814 15.33479031  6792
STARLINK-37689          
1 69308U 26119N   26186.58336806 -.01279033  00000+0 -36776-1 0  9993
2 69308  97.2853 212.4169 0001652  85.8770 358.5064 15.38948071  6054
STARLINK-37619          
1 69309U 26119P   26186.03709276  .00033860  00000+0  10459-2 0  9993
2 69309  97.2841 211.8998 0001288  88.1154 272.0237 15.33461635  6796
STARLINK-37794          
1 69310U 26119Q   26186.03437437  .00040493  00000+0  12486-2 0  9994
2 69310  97.2841 211.9025 0001286 109.3792 250.7590 15.33478807  6796
STARLINK-37795          
1 69311U 26119R   26186.58336806 -.02488681  00000+0 -68135-1 0  9993
2 69311  97.2859 212.4297 0001812  78.2768  38.0201 15.41053299  5883
